{
  "type": "FeatureCollection",
  "features": [
    {
      "type": "Feature",
      "properties": {
        "norad_id": 39160,
        "name": "VNREDSAT 1",
        "group": "resource",
        "lat": -11.501727185395076,
        "lon": 39.504939776975945,
        "alt_km": 681.7689680414005,
        "timestamp": "2025-12-08T10:52:02.606358+00:00",
        "meta_object_name": "VNREDSAT 1",
        "meta_object_id": "2013-021B",
        "meta_epoch": "2025-12-07T21:48:20.948256",
        "meta_mean_motion": 14.64911239,
        "meta_eccentricity": 0.00013113,
        "meta_inclination": 97.938,
        "meta_ra_of_asc_node": 37.3528,
        "meta_arg_of_pericenter": 83.0176,
        "meta_mean_anomaly": 277.1177,
        "meta_ephemeris_type": 0,
        "meta_classification_type": "U",
        "meta_norad_cat_id": 39160,
        "meta_element_set_no": 999,
        "meta_rev_at_epoch": 67228,
        "meta_bstar": 0.00022168699,
        "meta_mean_motion_dot": 1.14e-05,
        "meta_mean_motion_ddot": 0,
        "tle_line1": "1 39160U 13021B   25341.90857579  .00001140  00000+0  22169-3 0  9999",
        "tle_line2": "2 39160  97.9380  37.3528 0001311  83.0176 277.1177 14.64911239672283"
      },
      "geometry": {
        "type": "Point",
        "coordinates": [
          39.504939776975945,
          -11.501727185395076
        ]
      }
    },
    {
      "type": "Feature",
      "properties": {
        "norad_id": 39227,
        "name": "ARIRANG-5 (KOMPSAT-5)",
        "group": "resource",
        "lat": 2.7310687978567496,
        "lon": -12.81620005265481,
        "alt_km": 556.4768491398954,
        "timestamp": "2025-12-08T10:52:02.606368+00:00",
        "meta_object_name": "ARIRANG-5 (KOMPSAT-5)",
        "meta_object_id": "2013-042A",
        "meta_epoch": "2025-12-07T22:54:34.813440",
        "meta_mean_motion": 15.04526891,
        "meta_eccentricity": 0.00038418,
        "meta_inclination": 97.6149,
        "meta_ra_of_asc_node": 166.3272,
        "meta_arg_of_pericenter": 70.7281,
        "meta_mean_anomaly": 289.4361,
        "meta_ephemeris_type": 0,
        "meta_classification_type": "U",
        "meta_norad_cat_id": 39227,
        "meta_element_set_no": 999,
        "meta_rev_at_epoch": 67510,
        "meta_bstar": 0.0001614938,
        "meta_mean_motion_dot": 2.202e-05,
        "meta_mean_motion_ddot": 0,
        "tle_line1": "1 39227U 13042A   25341.95456960  .00002202  00000+0  16149-3 0  9991",
        "tle_line2": "2 39227  97.6149 166.3272 0003841  70.7281 289.4361 15.04526891675102"
      },
      "geometry": {
        "type": "Point",
        "coordinates": [
          -12.81620005265481,
          2.7310687978567496
        ]
      }
    },
    {
      "type": "Feature",
      "properties": {
        "norad_id": 39418,
        "name": "SKYSAT-A",
        "group": "resource",
        "lat": 78.39245923778317,
        "lon": -6.529218098005122,
        "alt_km": 538.2448863243972,
        "timestamp": "2025-12-08T10:52:02.606380+00:00",
        "meta_object_name": "SKYSAT-A",
        "meta_object_id": "2013-066C",
        "meta_epoch": "2025-12-07T17:01:56.795232",
        "meta_mean_motion": 15.11546955,
        "meta_eccentricity": 0.00206156,
        "meta_inclination": 97.4108,
        "meta_ra_of_asc_node": 32.0711,
        "meta_arg_of_pericenter": 255.2492,
        "meta_mean_anomaly": 104.6454,
        "meta_ephemeris_type": 0,
        "meta_classification_type": "U",
        "meta_norad_cat_id": 39418,
        "meta_element_set_no": 999,
        "meta_rev_at_epoch": 65954,
        "meta_bstar": 0.00036130607,
        "meta_mean_motion_dot": 6.094e-05,
        "meta_mean_motion_ddot": 0,
        "tle_line1": "1 39418U 13066C   25341.70968513  .00006094  00000+0  36131-3 0  9990",
        "tle_line2": "2 39418  97.4108  32.0711 0020615 255.2492 104.6454 15.11546955659548"
      },
      "geometry": {
        "type": "Point",
        "coordinates": [
          -6.529218098005122,
          78.39245923778317
        ]
      }
    },
    {
      "type": "Feature",
      "properties": {
        "norad_id": 39419,
        "name": "DUBAISAT-2",
        "group": "resource",
        "lat": -81.91316009629996,
        "lon": 39.95517007530813,
        "alt_km": 545.3742499649343,
        "timestamp": "2025-12-08T10:52:02.606391+00:00",
        "meta_object_name": "DUBAISAT-2",
        "meta_object_id": "2013-066D",
        "meta_epoch": "2025-12-07T22:30:48.852288",
        "meta_mean_motion": 15.08283178,
        "meta_eccentricity": 0.00110337,
        "meta_inclination": 97.4444,
        "meta_ra_of_asc_node": 332.4934,
        "meta_arg_of_pericenter": 338.3974,
        "meta_mean_anomaly": 21.6788,
        "meta_ephemeris_type": 0,
        "meta_classification_type": "U",
        "meta_norad_cat_id": 39419,
        "meta_element_set_no": 999,
        "meta_rev_at_epoch": 65754,
        "meta_bstar": 0.00046251997,
        "meta_mean_motion_dot": 7.121e-05,
        "meta_mean_motion_ddot": 0,
        "tle_line1": "1 39419U 13066D   25341.93806542  .00007121  00000+0  46252-3 0  9996",
        "tle_line2": "2 39419  97.4444 332.4934 0011033 338.3974  21.6788 15.08283178657545"
      },
      "geometry": {
        "type": "Point",
        "coordinates": [
          39.95517007530813,
          -81.91316009629996
        ]
      }
    },
    {
      "type": "Feature",
      "properties": {
        "norad_id": 39574,
        "name": "GPM-CORE",
        "group": "resource",
        "lat": -9.82426762386493,
        "lon": 51.68511548362935,
        "alt_km": 432.06503410047026,
        "timestamp": "2025-12-08T10:52:02.606402+00:00",
        "meta_object_name": "GPM-CORE",
        "meta_object_id": "2014-009C",
        "meta_epoch": "2025-12-07T23:10:19.706304",
        "meta_mean_motion": 15.45389122,
        "meta_eccentricity": 0.00105028,
        "meta_inclination": 64.9739,
        "meta_ra_of_asc_node": 228.6778,
        "meta_arg_of_pericenter": 269.9346,
        "meta_mean_anomaly": 90.0591,
        "meta_ephemeris_type": 0,
        "meta_classification_type": "U",
        "meta_norad_cat_id": 39574,
        "meta_element_set_no": 999,
        "meta_rev_at_epoch": 66827,
        "meta_bstar": 0.00037729317,
        "meta_mean_motion_dot": 0.00017955,
        "meta_mean_motion_ddot": 0,
        "tle_line1": "1 39574U 14009C   25341.96550586  .00017955  00000+0  37729-3 0  9998",
        "tle_line2": "2 39574  64.9739 228.6778 0010502 269.9346  90.0591 15.45389122668278"
      },
      "geometry": {
        "type": "Point",
        "coordinates": [
          51.68511548362935,
          -9.82426762386493
        ]
      }
    },
    {
      "type": "Feature",
      "properties": {
        "norad_id": 39634,
        "name": "SENTINEL-1A",
        "group": "resource",
        "lat": -61.41852964962969,
        "lon": 3.0672297037468925,
        "alt_km": 703.6825247711286,
        "timestamp": "2025-12-08T10:52:02.606412+00:00",
        "meta_object_name": "SENTINEL-1A",
        "meta_object_id": "2014-016A",
        "meta_epoch": "2025-12-07T23:38:00.636576",
        "meta_mean_motion": 14.59199506,
        "meta_eccentricity": 0.00012431,
        "meta_inclination": 98.1803,
        "meta_ra_of_asc_node": 347.2964,
        "meta_arg_of_pericenter": 89.2088,
        "meta_mean_anomaly": 270.9254,
        "meta_ephemeris_type": 0,
        "meta_classification_type": "U",
        "meta_norad_cat_id": 39634,
        "meta_element_set_no": 999,
        "meta_rev_at_epoch": 62213,
        "meta_bstar": 7.7366919e-05,
        "meta_mean_motion_dot": 3.19e-06,
        "meta_mean_motion_ddot": 0,
        "tle_line1": "1 39634U 14016A   25341.98472959  .00000319  00000+0  77367-4 0  9991",
        "tle_line2": "2 39634  98.1803 347.2964 0001243  89.2088 270.9254 14.59199506622138"
      },
      "geometry": {
        "type": "Point",
        "coordinates": [
          3.0672297037468925,
          -61.41852964962969
        ]
      }
    },
    {
      "type": "Feature",
      "properties": {
        "norad_id": 39731,
        "name": "KAZEOSAT 1",
        "group": "resource",
        "lat": 3.6807926286456984,
        "lon": -125.00268866316132,
        "alt_km": 754.0039443903161,
        "timestamp": "2025-12-08T10:52:02.606423+00:00",
        "meta_object_name": "KAZEOSAT 1",
        "meta_object_id": "2014-024A",
        "meta_epoch": "2025-12-07T22:23:47.009472",
        "meta_mean_motion": 14.42058196,
        "meta_eccentricity": 0.00010786,
        "meta_inclination": 98.3441,
        "meta_ra_of_asc_node": 53.9484,
        "meta_arg_of_pericenter": 100.0332,
        "meta_mean_anomaly": 260.098,
        "meta_ephemeris_type": 0,
        "meta_classification_type": "U",
        "meta_norad_cat_id": 39731,
        "meta_element_set_no": 999,
        "meta_rev_at_epoch": 61099,
        "meta_bstar": 0.00013951434,
        "meta_mean_motion_dot": 4.15e-06,
        "meta_mean_motion_ddot": 0,
        "tle_line1": "1 39731U 14024A   25341.93318298  .00000415  00000+0  13951-3 0  9993",
        "tle_line2": "2 39731  98.3441  53.9484 0001078 100.0332 260.0980 14.42058196610992"
      },
      "geometry": {
        "type": "Point",
        "coordinates": [
          -125.00268866316132,
          3.6807926286456984
        ]
      }
    }
  ]
}